{"type": "FeatureCollection", "features": [ {"type": "Feature", "properties": {"norad_id": 66809, "name": "STARLINK-35979", "group": "last-30-days", "lat": 27.44876997350859, "lon": -13.829187690280317, "alt_km": 387.26019614289, "timestamp": "2025-12-21T07:34:33.302105+00:00", "meta": {"OBJECT_NAME": "STARLINK-35979", "OBJECT_ID": "2025-278U", "EPOCH": "2025-12-20T22:00:01.999584", "MEAN_MOTION": 15.60620974, "ECCENTRICITY": 0.0001569, "INCLINATION": 42.9994, "RA_OF_ASC_NODE": 202.416, "ARG_OF_PERICENTER": 271.9367, "MEAN_ANOMALY": 142.4748, "EPHEMERIS_TYPE": 0, "CLASSIFICATION_TYPE": "U", "NORAD_CAT_ID": 66809, "ELEMENT_SET_NO": 999, "REV_AT_EPOCH": 427, "BSTAR": -0.025923495, "MEAN_MOTION_DOT": -0.0194417, "MEAN_MOTION_DDOT": 0}, "tle": {"line1": "1 66809U 25278U   25354.91668981 -.01944170  00000+0 -25923-1 0  9999", "line2": "2 66809  42.9994 202.4160 0001569 271.9367 142.4748 15.60620974  4272"}}, "geometry": {"type": "Point", "coordinates": [-13.829187690280317, 27.44876997350859]}}, {"type": "Feature", "properties": {"norad_id": 66810, "name": "STARLINK-36046", "group": "last-30-days", "lat": 29.57382038229996, "lon": -17.455697162187274, "alt_km": 386.9754518558111, "timestamp": "2025-12-21T07:34:33.302114+00:00", "meta": {"OBJECT_NAME": "STARLINK-36046", "OBJECT_ID": "2025-278V", "EPOCH": "2025-12-20T22:00:01.999584", "MEAN_MOTION": 15.60622609, "ECCENTRICITY": 0.00015592, "INCLINATION": 42.9997, "RA_OF_ASC_NODE": 202.4272, "ARG_OF_PERICENTER": 272.0106, "MEAN_ANOMALY": 138.5665, "EPHEMERIS_TYPE": 0, "CLASSIFICATION_TYPE": "U", "NORAD_CAT_ID": 66810, "ELEMENT_SET_NO": 999, "REV_AT_EPOCH": 404, "BSTAR": -0.02598842, "MEAN_MOTION_DOT": -0.01948556, "MEAN_MOTION_DDOT": 0}, "tle": {"line1": "1 66810U 25278V   25354.91668981 -.01948556  00000+0 -25988-1 0  9994", "line2": "2 66810  42.9997 202.4272 0001559 272.0106 138.5665 15.60622609  4049"}}, "geometry": {"type": "Point", "coordinates": [-17.455697162187274, 29.57382038229996]}}, {"type": "Feature", "properties": {"norad_id": 66811, "name": "STARLINK-36045", "group": "last-30-days", "lat": 28.523619489690095, "lon": -15.62420796753181, "alt_km": 387.10928102925845, "timestamp": "2025-12-21T07:34:33.302122+00:00", "meta": {"OBJECT_NAME": "STARLINK-36045", "OBJECT_ID": "2025-278W", "EPOCH": "2025-12-20T22:00:01.999584", "MEAN_MOTION": 15.60622684, "ECCENTRICITY": 0.00015519, "INCLINATION": 42.9996, "RA_OF_ASC_NODE": 202.4218, "ARG_OF_PERICENTER": 271.7371, "MEAN_ANOMALY": 140.7571, "EPHEMERIS_TYPE": 0, "CLASSIFICATION_TYPE": "U", "NORAD_CAT_ID": 66811, "ELEMENT_SET_NO": 999, "REV_AT_EPOCH": 427, "BSTAR": -0.025987797, "MEAN_MOTION_DOT": -0.01948514, "MEAN_MOTION_DDOT": 0}, "tle": {"line1": "1 66811U 25278W   25354.91668981 -.01948514  00000+0 -25988-1 0  9999", "line2": "2 66811  42.9996 202.4218 0001551 271.7371 140.7571 15.60622684  4270"}}, "geometry": {"type": "Point", "coordinates": [-15.62420796753181, 28.523619489690095]}}, {"type": "Feature", "properties": {"norad_id": 66812, "name": "STARLINK-36054", "group": "last-30-days", "lat": 26.35323323584705, "lon": -12.069820693065683, "alt_km": 387.415597380731, "timestamp": "2025-12-21T07:34:33.302131+00:00", "meta": {"OBJECT_NAME": "STARLINK-36054", "OBJECT_ID": "2025-278X", "EPOCH": "2025-12-20T22:00:01.999584", "MEAN_MOTION": 15.60621687, "ECCENTRICITY": 0.00016234, "INCLINATION": 42.9996, "RA_OF_ASC_NODE": 202.4123, "ARG_OF_PERICENTER": 270.3486, "MEAN_ANOMALY": 145.9808, "EPHEMERIS_TYPE": 0, "CLASSIFICATION_TYPE": "U", "NORAD_CAT_ID": 66812, "ELEMENT_SET_NO": 999, "REV_AT_EPOCH": 427, "BSTAR": -0.025989316, "MEAN_MOTION_DOT": -0.019486, "MEAN_MOTION_DDOT": 0}, "tle": {"line1": "1 66812U 25278X   25354.91668981 -.01948600  00000+0 -25989-1 0  9997", "line2": "2 66812  42.9996 202.4123 0001623 270.3486 145.9808 15.60621687  4270"}}, "geometry": {"type": "Point", "coordinates": [-12.069820693065683, 26.35323323584705]}}, {"type": "Feature", "properties": {"norad_id": 66813, "name": "STARLINK-36042", "group": "last-30-days", "lat": 25.2338021512966, "lon": -10.341758520197699, "alt_km": 387.59478311756993, "timestamp": "2025-12-21T07:34:33.302140+00:00", "meta": {"OBJECT_NAME": "STARLINK-36042", "OBJECT_ID": "2025-278Y", "EPOCH": "2025-12-20T22:00:01.999584", "MEAN_MOTION": 15.60619392, "ECCENTRICITY": 0.00015619, "INCLINATION": 42.9997, "RA_OF_ASC_NODE": 202.4067, "ARG_OF_PERICENTER": 273.654, "MEAN_ANOMALY": 144.5946, "EPHEMERIS_TYPE": 0, "CLASSIFICATION_TYPE": "U", "NORAD_CAT_ID": 66813, "ELEMENT_SET_NO": 999, "REV_AT_EPOCH": 427, "BSTAR": -0.025947937, "MEAN_MOTION_DOT": -0.01945672, "MEAN_MOTION_DDOT": 0}, "tle": {"line1": "1 66813U 25278Y   25354.91668981 -.01945672  00000+0 -25948-1 0  9999", "line2": "2 66813  42.9997 202.4067 0001561 273.6540 144.5946 15.60619392  4275"}}, "geometry": {"type": "Point", "coordinates": [-10.341758520197699, 25.2338021512966]}}, {"type": "Feature", "properties": {"norad_id": 66814, "name": "STARLINK-35984", "group": "last-30-days", "lat": 18.156358587540673, "lon": -0.5950379691788124, "alt_km": 388.42474593840143, "timestamp": "2025-12-21T07:34:33.302149+00:00", "meta": {"OBJECT_NAME": "STARLINK-35984", "OBJECT_ID": "2025-278Z", "EPOCH": "2025-12-20T22:00:01.999584", "MEAN_MOTION": 15.60618305, "ECCENTRICITY": 0.00015989, "INCLINATION": 42.9992, "RA_OF_ASC_NODE": 202.3773, "ARG_OF_PERICENTER": 268.5626, "MEAN_ANOMALY": 161.1866, "EPHEMERIS_TYPE": 0, "CLASSIFICATION_TYPE": "U", "NORAD_CAT_ID": 66814, "ELEMENT_SET_NO": 999, "REV_AT_EPOCH": 436, "BSTAR": -0.025893732, "MEAN_MOTION_DOT": -0.01942049, "MEAN_MOTION_DDOT": 0}, "tle": {"line1": "1 66814U 25278Z   25354.91668981 -.01942049  00000+0 -25894-1 0  9995", "line2": "2 66814  42.9992 202.3773 0001598 268.5626 161.1866 15.60618305  4361"}}, "geometry": {"type": "Point", "coordinates": [-0.5950379691788124, 18.156358587540673]}}, {"type": "Feature", "properties": {"norad_id": 66815, "name": "STARLINK-35985", "group": "last-30-days", "lat": 19.372910354001615, "lon": -2.1539639369978913, "alt_km": 388.3796794652935, "timestamp": "2025-12-21T07:34:33.302161+00:00", "meta": {"OBJECT_NAME": "STARLINK-35985", "OBJECT_ID": "2025-278AA", "EPOCH": "2025-12-20T22:00:01.999584", "MEAN_MOTION": 15.60621443, "ECCENTRICITY": 0.00015715, "INCLINATION": 42.9994, "RA_OF_ASC_NODE": 202.3823, "ARG_OF_PERICENTER": 274.0357, "MEAN_ANOMALY": 153.7951, "EPHEMERIS_TYPE": 0, "CLASSIFICATION_TYPE": "U", "NORAD_CAT_ID": 66815, "ELEMENT_SET_NO": 999, "REV_AT_EPOCH": 436, "BSTAR": -0.025952912, "MEAN_MOTION_DOT": -0.01946144, "MEAN_MOTION_DDOT": 0}, "tle": {"line1": "1 66815U 25278AA  25354.91668981 -.01946144  00000+0 -25953-1 0  9992", "line2": "2 66815  42.9994 202.3823 0001571 274.0357 153.7951 15.60621443  4363"}}, "geometry": {"type": "Point", "coordinates": [-2.1539639369978913, 19.372910354001615]}}, {"type": "Feature", "properties": {"norad_id": 66816, "name": "STARLINK-36098", "group": "last-30-days", "lat": 24.09719767249169, "lon": -8.648664785714011, "alt_km": 387.7454083085395, "timestamp": "2025-12-21T07:34:33.302171+00:00", "meta": {"OBJECT_NAME": "STARLINK-36098", "OBJECT_ID": "2025-278AB", "EPOCH": "2025-12-20T22:00:01.999584", "MEAN_MOTION": 15.60621636, "ECCENTRICITY": 0.00016302, "INCLINATION": 42.9998, "RA_OF_ASC_NODE": 202.402, "ARG_OF_PERICENTER": 271.8669, "MEAN_ANOMALY": 148.296, "EPHEMERIS_TYPE": 0, "CLASSIFICATION_TYPE": "U", "NORAD_CAT_ID": 66816, "ELEMENT_SET_NO": 999, "REV_AT_EPOCH": 411, "BSTAR": -0.025975521, "MEAN_MOTION_DOT": -0.01947691, "MEAN_MOTION_DDOT": 0}, "tle": {"line1": "1 66816U 25278AB  25354.91668981 -.01947691  00000+0 -25976-1 0  9996", "line2": "2 66816  42.9998 202.4020 0001630 271.8669 148.2960 15.60621636  4111"}}, "geometry": {"type": "Point", "coordinates": [-8.648664785714011, 24.09719767249169]}}, {"type": "Feature", "properties": {"norad_id": 66817, "name": "STARLINK-35995", "group": "last-30-days", "lat": 21.76673478732997, "lon": -5.348083362615625, "alt_km": 388.0879847406677, "timestamp": "2025-12-21T07:34:33.302181+00:00", "meta": {"OBJECT_NAME": "STARLINK-35995", "OBJECT_ID": "2025-278AC", "EPOCH": "2025-12-20T22:00:01.999584", "MEAN_MOTION": 15.60621167, "ECCENTRICITY": 0.00016401, "INCLINATION": 42.9992, "RA_OF_ASC_NODE": 202.3919, "ARG_OF_PERICENTER": 273.0532, "MEAN_ANOMALY": 150.9465, "EPHEMERIS_TYPE": 0, "CLASSIFICATION_TYPE": "U", "NORAD_CAT_ID": 66817, "ELEMENT_SET_NO": 999, "REV_AT_EPOCH": 427, "BSTAR": -0.026009951, "MEAN_MOTION_DOT": -0.01949939, "MEAN_MOTION_DDOT": 0}, "tle": {"line1": "1 66817U 25278AC  25354.91668981 -.01949939  00000+0 -26010-1 0  9994", "line2": "2 66817  42.9992 202.3919 0001640 273.0532 150.9465 15.60621167  4272"}}, "geometry": {"type": "Point", "coordinates": [-5.348083362615625, 21.76673478732997]}}, {"type": "Feature", "properties": {"norad_id": 66818, "name": "STARLINK-35994", "group": "last-30-days", "lat": 22.941302045291977, "lon": -6.984256908553481, "alt_km": 387.81141287558876, "timestamp": "2025-12-21T07:34:33.302192+00:00", "meta": {"OBJECT_NAME": "STARLINK-35994", "OBJECT_ID": "2025-278AD", "EPOCH": "2025-12-20T22:00:01.999584", "MEAN_MOTION": 15.60620525, "ECCENTRICITY": 0.00015757, "INCLINATION": 42.9996, "RA_OF_ASC_NODE": 202.3978, "ARG_OF_PERICENTER": 268.9548, "MEAN_ANOMALY": 153.1245, "EPHEMERIS_TYPE": 0, "CLASSIFICATION_TYPE": "U", "NORAD_CAT_ID": 66818, "ELEMENT_SET_NO": 999, "REV_AT_EPOCH": 427, "BSTAR": -0.025941926, "MEAN_MOTION_DOT": -0.01945361, "MEAN_MOTION_DDOT": 0}, "tle": {"line1": "1 66818U 25278AD  25354.91668981 -.01945361  00000+0 -25942-1 0  9993", "line2": "2 66818  42.9996 202.3978 0001575 268.9548 153.1245 15.60620525  4277"}}, "geometry": {"type": "Point", "coordinates": [-6.984256908553481, 22.941302045291977]}}]}